IRIDIUM 144             
1 43249U 18030A   24134.56761848  .00000182  00000+0  58077-4 0  9994
2 43249  86.3974 249.9225 0002067  97.9312 262.2118 14.34226146320561
IRIDIUM 149             
1 43250U 18030B   24135.55072146  .00000411  00000+0  13977-3 0  9996
2 43250  86.3976 249.4870 0002221  99.4121 260.7326 14.34221363320709
IRIDIUM 157             
1 43251U 18030C   24134.73253296  .00000259  00000+0  85348-4 0  9995
2 43251  86.3976 249.8650 0002534  96.3719 263.7765 14.34215613320561
IRIDIUM 140             
1 43252U 18030D   24135.37950530  .00000875  00000+0  30531-3 0  9999
2 43252  86.4051 249.6179 0006516 125.6120 234.5684 14.34197583320715
IRIDIUM 145             
1 43253U 18030E   24135.36679246  .00000841  00000+0  29337-3 0  9996
2 43253  86.3969 249.5873 0001952 103.6376 256.5037 14.34213350320640
IRIDIUM 146             
1 43254U 18030F   24135.41751888  .00000913  00000+0  31889-3 0  9991
2 43254  86.3976 249.5828 0002039  99.6175 260.5252 14.34218335320661
IRIDIUM 148             
1 43255U 18030G   24134.61836010  .00000759  00000+0  26384-3 0  9996
2 43255  86.3977 249.9476 0002329 101.2811 258.8647 14.34225289320580
IRIDIUM 142             
1 43256U 18030H   24134.72618825  .00000818  00000+0  28512-3 0  9992
2 43256  86.3974 249.8187 0002368  98.1374 262.0091 14.34219830320560
